NORAD_CAT_ID,OBJECT_NAME,OBJECT_TYPE,EPOCH,MEAN_MOTION,ECCENTRICITY,INCLINATION,RA_OF_ASC_NODE,ARG_OF_PERICENTER,MEAN_ANOMALY,BSTAR,MEAN_MOTION_DOT,MEAN_MOTION_DDOT,TLE_LINE0,TLE_LINE1,TLE_LINE2,SEMIMAJOR_AXIS,PERIOD,APOGEE,PERIGEE,DECAYED
51720.0,STARLINK-3526,PAYLOAD,2023-01-20 11:45:47,15.08840732,0.0001841,53.217,65.6376,80.3116,279.8084,0.0015085,0.00023802,0.0,0 STARLINK-3526,1 51720U 22016G   23020.49012962  .00023802  00000-0  15085-2 0  9992,2 51720  53.2170  65.6376 0001841  80.3116 279.8084 15.08840732 51744,6917.878000000001,95.438,541.0169999999999,538.47,0.0
51720.0,STARLINK-3526,PAYLOAD,2023-01-20 19:42:43,15.08837504,0.0002210999999999,53.2166,64.1495,83.7122,276.4122,0.0011349,0.00017819,0.0,0 STARLINK-3526,1 51720U 22016G   23020.82133439  .00017819  00000-0  11349-2 0  9992,2 51720  53.2166  64.1495 0002211  83.7122 276.4122 15.08837504 51795,6917.888000000001,95.438,541.283,538.2230000000001,0.0
51720.0,STARLINK-3526,PAYLOAD,2023-01-21 10:01:11,15.08851704,0.0001749,53.2164,61.4731,88.4314,271.6878,0.0010564,0.0001657,0.0,0 STARLINK-3526,1 51720U 22016G   23021.41749299  .00016570  00000-0  10564-2 0  9996,2 51720  53.2164  61.4731 0001749  88.4314 271.6878 15.08851704 51889,6917.845,95.437,540.92,538.5,0.0
51720.0,STARLINK-3526,PAYLOAD,2023-01-22 03:30:25,15.08857305,0.0001696,53.2155,58.2029,104.6681,255.45,0.00099616,0.00015609,0.0,0 STARLINK-3526,1 51720U 22016G   23022.14613217  .00015609  00000-0  99616-3 0  9995,2 51720  53.2155  58.2029 0001696 104.6681 255.4500 15.08857305 51999,6917.826999999999,95.436,540.866,538.519,0.0
51720.0,STARLINK-3526,PAYLOAD,2023-01-22 19:24:17,15.08836682,0.0002327,53.2158,55.2286,85.7705,274.3553,0.00025672,3.799e-05,0.0,0 STARLINK-3526,1 51720U 22016G   23022.80853750  .00003799  00000-0  25672-3 0  9994,2 51720  53.2158  55.2286 0002327  85.7705 274.3553 15.08836682 52097,6917.891,95.438,541.365,538.146,0.0
51720.0,STARLINK-3526,PAYLOAD,2023-01-24 06:22:46,15.08850834,0.0001726,53.2166,48.6871,77.5742,282.5443,0.00085215,0.00013304,0.0,0 STARLINK-3526,1 51720U 22016G   23024.26582089  .00013304  00000-0  85215-3 0  9992,2 51720  53.2166  48.6871 0001726  77.5742 282.5443 15.08850834 52313,6917.847,95.437,540.906,538.518,0.0
51720.0,STARLINK-3526,PAYLOAD,2023-01-25 04:38:10,15.08847695,0.0001546,53.2172,44.524,80.2068,279.9099,0.00043901,6.707e-05,0.0,0 STARLINK-3526,1 51720U 22016G   23025.19318088  .00006707  00000-0  43901-3 0  9996,2 51720  53.2172  44.5240 0001546  80.2068 279.9099 15.08847695 52450,6917.857,95.437,540.7909999999999,538.6519999999999,0.0
51720.0,STARLINK-3526,PAYLOAD,2023-01-25 07:48:57,15.08848528,0.0001489,53.2174,43.9288,86.8828,273.2335,0.00046932,7.191e-05,0.0,0 STARLINK-3526,1 51720U 22016G   23025.32566004  .00007191  00000-0  46932-3 0  9999,2 51720  53.2174  43.9288 0001489  86.8828 273.2335 15.08848528 51410,6917.854,95.437,540.749,538.689,0.0
51720.0,STARLINK-3526,PAYLOAD,2023-01-26 01:18:11,15.08842173,0.0001584,53.2184,40.6565,89.2451,270.8723,0.00084791,0.00013233,0.0,0 STARLINK-3526,1 51720U 22016G   23026.05430369  .00013233  00000-0  84791-3 0  9993,2 51720  53.2184  40.6565 0001584  89.2451 270.8723 15.08842173 52581,6917.874,95.437,540.835,538.643,0.0
51720.0,STARLINK-3526,PAYLOAD,2023-01-27 05:55:08,15.08846837,0.0001464,53.2179,35.3046,101.504,258.6116,0.00031221,4.685e-05,0.0,0 STARLINK-3526,1 51720U 22016G   23027.24662297  .00004685  00000-0  31221-3 0  9993,2 51720  53.2179  35.3046 0001464 101.5040 258.6116 15.08846837 52760,6917.859,95.437,540.737,538.712,0.0
51720.0,STARLINK-3526,PAYLOAD,2023-01-28 05:45:55,15.08838943,0.0001529,53.2181,30.8456,104.5262,255.59,9.4891e-05,1.222e-05,0.0,0 STARLINK-3526,1 51720U 22016G   23028.24022609  .00001222  00000-0  94891-4 0  9998,2 51720  53.2181  30.8456 0001529 104.5262 255.5900 15.08838943 52912,6917.884,95.438,540.806,538.691,0.0
51720.0,STARLINK-3526,PAYLOAD,2023-01-29 08:47:28,15.08853115,0.0001134,53.2168,25.7866,93.2503,266.8619,1.8669e-05,9e-08,0.0,0 STARLINK-3526,1 51720U 22016G   23029.36629747  .00000009  00000-0  18669-4 0  9999,2 51720  53.2168  25.7866 0001134  93.2503 266.8619 15.08853115 53088,6917.84,95.437,540.49,538.921,0.0
51720.0,STARLINK-3526,PAYLOAD,2023-01-30 08:38:15,15.08847649,0.0001163,53.2168,21.3272,96.4536,263.6588,0.00017231,2.456e-05,0.0,0 STARLINK-3526,1 51720U 22016G   23030.35990067  .00002456  00000-0  17231-3 0  9997,2 51720  53.2168  21.3272 0001163  96.4536 263.6588 15.08847649 53236,6917.857,95.437,540.527,538.917,0.0
51720.0,STARLINK-3526,PAYLOAD,2023-01-30 22:56:43,15.08841151,0.0001229,53.2174,18.6505,95.1748,264.9384,1.1945e-05,-9.8e-07,0.0,0 STARLINK-3526,1 51720U 22016G   23030.95606398 -.00000098  00000-0  11945-4 0  9992,2 51720  53.2174  18.6505 0001229  95.1748 264.9384 15.08841151 53325,6917.877,95.437,540.592,538.892,0.0
51720.0,STARLINK-3526,PAYLOAD,2023-01-31 08:29:02,15.08848609,0.0001279,53.2173,16.8673,94.5319,265.5819,0.00013333,1.835e-05,0.0,0 STARLINK-3526,1 51720U 22016G   23031.35350067  .00001835  00000-0  13333-3 0  9997,2 51720  53.2173  16.8673 0001279  94.5319 265.5819 15.08848609 52326,6917.854,95.437,540.604,538.834,0.0
51720.0,STARLINK-3526,PAYLOAD,2023-01-31 18:01:21,15.08845276,0.0001314,53.2172,15.0837,90.9939,269.1203,0.00010465,1.378e-05,0.0,0 STARLINK-3526,1 51720U 22016G   23031.75094199  .00001378  00000-0  10465-3 0  9997,2 51720  53.2172  15.0837 0001314  90.9939 269.1203 15.08845276 52386,6917.864,95.437,540.638,538.82,0.0
51720.0,STARLINK-3526,PAYLOAD,2023-02-01 05:09:03,15.08847848,0.0001262,53.2173,13.0018,99.8576,260.2558,0.00019356,2.795e-05,0.0,0 STARLINK-3526,1 51720U 22016G   23032.21462057  .00002795  00000-0  19356-3 0  9993,2 51720  53.2173  13.0018 0001262  99.8576 260.2558 15.08847848 53511,6917.856,95.437,540.594,538.848,0.0
51720.0,STARLINK-3526,PAYLOAD,2023-02-01 08:19:49,15.08850825,0.0001264,53.217,12.4066,98.5046,261.609,0.00021333,3.11e-05,0.0,0 STARLINK-3526,1 51720U 22016G   23032.34709871  .00003110  00000-0  21333-3 0  9995,2 51720  53.2170  12.4066 0001264  98.5046 261.6090 15.08850825 52473,6917.847,95.437,540.587,538.838,0.0
51720.0,STARLINK-3526,PAYLOAD,2023-02-02 03:24:27,15.08837168,0.0001277,53.2172,8.8383,94.9265,265.1873,5.2023e-05,5.4e-06,0.0,0 STARLINK-3526,1 51720U 22016G   23033.14198784  .00000540  00000-0  52023-4 0  9994,2 51720  53.2172   8.8383 0001277  94.9265 265.1873 15.08837168 53657,6917.889,95.438,540.637,538.871,0.0
51720.0,STARLINK-3526,PAYLOAD,2023-02-02 08:10:36,15.08842941,0.0001282,53.2173,7.9464,91.8746,268.2393,0.00013452,1.854e-05,0.0,0 STARLINK-3526,1 51720U 22016G   23033.34070576  .00001854  00000-0  13452-3 0  9995,2 51720  53.2173   7.9464 0001282  91.8746 268.2393 15.08842941 52626,6917.871,95.437,540.623,538.85,0.0
51720.0,STARLINK-3526,PAYLOAD,2023-02-03 06:26:00,15.08860152,0.0001347,53.2173,3.7834,85.2754,274.8392,0.0005858,9.052e-05,0.0,0 STARLINK-3526,1 51720U 22016G   23034.26806048  .00009052  00000-0  58580-3 0  9997,2 51720  53.2173   3.7834 0001347  85.2754 274.8392 15.08860152 53828,6917.819,95.436,540.616,538.752,0.0
51720.0,STARLINK-3526,PAYLOAD,2023-02-03 08:01:23,15.08862395,0.0001365,53.2173,3.4859,83.9711,276.1437,0.00071877,0.00011177,0.0,0 STARLINK-3526,1 51720U 22016G   23034.33430027  .00011177  00000-0  71877-3 0  9990,2 51720  53.2173   3.4859 0001365  83.9711 276.1437 15.08862395 52779,6917.812,95.436,540.621,538.733,0.0
51720.0,STARLINK-3526,PAYLOAD,2023-02-04 07:52:10,15.08856397,0.0001258,53.2174,359.0255,97.9171,262.1964,0.00073175,0.00011382,0.0,0 STARLINK-3526,1 51720U 22016G   23035.32790008  .00011382  00000-0  73175-3 0  9999,2 51720  53.2174 359.0255 0001258  97.9171 262.1964 15.08856397 53985,6917.83,95.437,540.566,538.825,0.0
51720.0,STARLINK-3526,PAYLOAD,2023-02-04 22:10:39,15.08834812,0.0001692,53.2177,356.3487,96.3224,263.7961,0.00053878,8.296e-05,0.0,0 STARLINK-3526,1 51720U 22016G   23035.92406839  .00008296  00000-0  53878-3 0  9999,2 51720  53.2177 356.3487 0001692  96.3224 263.7961 15.08834812 54072,6917.896,95.438,540.932,538.591,0.0
51720.0,STARLINK-3526,PAYLOAD,2023-02-05 07:42:58,15.08833636,0.0001453,53.2176,354.5646,92.3558,267.7601,7.3671e-05,8.85e-06,0.0,0 STARLINK-3526,1 51720U 22016G   23036.32151019  .00000885  00000-0  73671-4 0  9991,2 51720  53.2176 354.5646 0001453  92.3558 267.7601 15.08833636 53076,6917.9,95.438,540.77,538.76,0.0
51720.0,STARLINK-3526,PAYLOAD,2023-02-06 04:22:59,15.08850804,0.0001402,53.2178,350.6989,92.027,268.0883,0.00048947,7.513e-05,0.0,0 STARLINK-3526,1 51720U 22016G   23037.18262852  .00007513  00000-0  48947-3 0  9996,2 51720  53.2178 350.6989 0001402  92.0270 268.0883 15.08850804 54261,6917.847,95.437,540.682,538.742,0.0
51720.0,STARLINK-3526,PAYLOAD,2023-02-06 05:58:22,15.08852358,0.0001403,53.2174,350.4013,89.2723,270.843,0.00060477,9.353e-05,0.0,0 STARLINK-3526,1 51720U 22016G   23037.24886850  .00009353  00000-0  60477-3 0  9999,2 51720  53.2174 350.4013 0001403  89.2723 270.8430 15.08852358 53214,6917.843,95.437,540.678,538.737,0.0
51720.0,STARLINK-3526,PAYLOAD,2023-02-07 05:49:08,15.08868703,0.0001332,53.2173,345.9412,86.1379,273.9765,0.00075383,0.00011739,0.0,0 STARLINK-3526,1 51720U 22016G   23038.24246167  .00011739  00000-0  75383-3 0  9994,2 51720  53.2173 345.9412 0001332  86.1379 273.9765 15.08868703 54429,6917.793,95.436,540.579,538.736,0.0
51720.0,STARLINK-3526,PAYLOAD,2023-02-07 20:07:37,15.08846725,9.15e-05,53.2189,343.2643,100.9284,259.1811,0.00018256,2.619e-05,0.0,0 STARLINK-3526,1 51720U 22016G   23038.83862275  .00002619  00000-0  18256-3 0  9996,2 51720  53.2189 343.2643 0000915 100.9284 259.1811 15.08846725 54517,6917.86,95.437,540.358,539.092,0.0
51720.0,STARLINK-3526,PAYLOAD,2023-02-08 05:39:55,15.08866453,0.0001255,53.216,341.4809,95.3378,264.7757,0.0014134,0.00022294,0.0,0 STARLINK-3526,1 51720U 22016G   23039.23605908  .00022294  00000-0  14134-2 0  9990,2 51720  53.2160 341.4809 0001255  95.3378 264.7757 15.08866453 54576,6917.8,95.436,540.533,538.796,0.0
